ONEWEB-0256             
1 48974U 21060H   24003.67274205 -.00000035  00000+0 -12520-3 0  9995
2 48974  87.9056  47.0213 0001617  96.5187 263.6128 13.16595040123083
ONEWEB-0257             
1 48975U 21060J   24003.55458012  .00000053  00000+0  10579-3 0  9993
2 48975  87.9058  47.0199 0001728 105.3218 254.8104 13.16595861123027
ONEWEB-0258             
1 48976U 21060K   24003.63262565  .00007849  00000+0  20462-1 0  9999
2 48976  87.9061  47.0332 0001699 101.9874 258.1448 13.16654979123033
ONEWEB-0259             
1 48977U 21060L   24003.62636929  .00000602  00000+0  15404-2 0  9999
2 48977  87.9066  47.0216 0002269  99.6175 260.5212 13.16593529123074
ONEWEB-0260             
1 48978U 21060M   24003.61997665  .00005632  00000+0  14680-1 0  9998
2 48978  87.9072  47.0528 0001645 142.6142 217.5104 13.16635339123043
ONEWEB-0261             
1 48979U 21060N   24003.58625076 -.00000179  00000+0 -50243-3 0  9999
2 48979  87.9057  47.0466 0002120 112.8484 247.2871 13.16593579121818
ONEWEB-0262             
1 48980U 21060P   24003.56725066  .00000070  00000+0  15019-3 0  9999
2 48980  87.9061  47.0176 0002342 101.6790 258.4604 13.16595585121777
ONEWEB-0263             
1 48981U 21060Q   24003.67491319 -.00000014  00000+0 -69340-4 0  9990
2 48981  87.9057  47.0085 0002225 109.6728 250.4643 13.16592565123054
